{
 "generated_at": "2026-07-16T07:22:15Z",
 "sources": [
  {
   "name": "CelesTrak",
   "url": "https://celestrak.org/NORAD/elements/",
   "license": "frei verfügbar; Attribution. Ursprünglich USSPACECOM/Space-Track."
  },
  {
   "name": "GCAT (J. McDowell, planet4589.org)",
   "url": "https://planet4589.org/space/gcat/",
   "license": "CC-BY 4.0"
  }
 ],
 "satellites": [
  {
   "norad": 60549,
   "name": "ICEYE-X40",
   "intl": "2024-149CK",
   "group": "sar",
   "gcat": {
    "class": "B",
    "category": "IMG-R",
    "owner": "ALYAH",
    "state": "UAE"
   },
   "omm": {
    "OBJECT_NAME": "ICEYE-X40",
    "OBJECT_ID": "2024-149CK",
    "EPOCH": "2026-07-15T03:46:08.983488",
    "MEAN_MOTION": 14.98070105,
    "ECCENTRICITY": 0.00039977,
    "INCLINATION": 97.6795,
    "RA_OF_ASC_NODE": 272.2031,
    "ARG_OF_PERICENTER": 6.477,
    "MEAN_ANOMALY": 353.6503,
    "EPHEMERIS_TYPE": 0,
    "CLASSIFICATION_TYPE": "U",
    "NORAD_CAT_ID": 60549,
    "ELEMENT_SET_NO": 999,
    "REV_AT_EPOCH": 10426,
    "BSTAR": 0.00012620525,
    "MEAN_MOTION_DOT": 0.00001435,
    "MEAN_MOTION_DDOT": 0
   }
  },
  {
   "norad": 62700,
   "name": "ICEYE-X41",
   "intl": "2025-009CV",
   "group": "sar",
   "gcat": {
    "class": "B",
    "category": "IMG-R",
    "owner": "ICEUS",
    "state": "US"
   },
   "omm": {
    "OBJECT_NAME": "ICEYE-X41",
    "OBJECT_ID": "2025-009CV",
    "EPOCH": "2026-07-15T17:57:40.008672",
    "MEAN_MOTION": 14.96914733,
    "ECCENTRICITY": 0.00002596,
    "INCLINATION": 97.706,
    "RA_OF_ASC_NODE": 275.8606,
    "ARG_OF_PERICENTER": 276.239,
    "MEAN_ANOMALY": 83.8802,
    "EPHEMERIS_TYPE": 0,
    "CLASSIFICATION_TYPE": "U",
    "NORAD_CAT_ID": 62700,
    "ELEMENT_SET_NO": 999,
    "REV_AT_EPOCH": 8168,
    "BSTAR": 0.00014230433,
    "MEAN_MOTION_DOT": 0.00001576,
    "MEAN_MOTION_DDOT": 0
   }
  },
  {
   "norad": 62698,
   "name": "ICEYE-X42",
   "intl": "2025-009CT",
   "group": "sar",
   "gcat": {
    "class": "B",
    "category": "IMG-R",
    "owner": "SP42",
    "state": "UAE"
   },
   "omm": {
    "OBJECT_NAME": "ICEYE-X42",
    "OBJECT_ID": "2025-009CT",
    "EPOCH": "2026-07-15T18:42:57.907296",
    "MEAN_MOTION": 14.91855669,
    "ECCENTRICITY": 0.00012771,
    "INCLINATION": 97.7389,
    "RA_OF_ASC_NODE": 274.5792,
    "ARG_OF_PERICENTER": 97.3161,
    "MEAN_ANOMALY": 262.8203,
    "EPHEMERIS_TYPE": 0,
    "CLASSIFICATION_TYPE": "U",
    "NORAD_CAT_ID": 62698,
    "ELEMENT_SET_NO": 999,
    "REV_AT_EPOCH": 8155,
    "BSTAR": 0.00010577998,
    "MEAN_MOTION_DOT": 0.00001013,
    "MEAN_MOTION_DDOT": 0
   }
  },
  {
   "norad": 60539,
   "name": "ICEYE-X43",
   "intl": "2024-149BZ",
   "group": "sar",
   "gcat": {
    "class": "B",
    "category": "IMG-R",
    "owner": "FAB/ICEYE",
    "state": "BR"
   },
   "omm": {
    "OBJECT_NAME": "ICEYE-X43",
    "OBJECT_ID": "2024-149BZ",
    "EPOCH": "2026-07-15T18:50:54.572640",
    "MEAN_MOTION": 14.99787819,
    "ECCENTRICITY": 0.00064811,
    "INCLINATION": 97.6799,
    "RA_OF_ASC_NODE": 273.3667,
    "ARG_OF_PERICENTER": 345.1881,
    "MEAN_ANOMALY": 14.9151,
    "EPHEMERIS_TYPE": 0,
    "CLASSIFICATION_TYPE": "U",
    "NORAD_CAT_ID": 60539,
    "ELEMENT_SET_NO": 999,
    "REV_AT_EPOCH": 10440,
    "BSTAR": 0.000067353928,
    "MEAN_MOTION_DOT": 0.00000774,
    "MEAN_MOTION_DDOT": 0
   }
  },
  {
   "norad": 62707,
   "name": "ICEYE-X44",
   "intl": "2025-009DC",
   "group": "sar",
   "gcat": {
    "class": "B",
    "category": "IMG-R",
    "owner": "SP42",
    "state": "UAE"
   },
   "omm": {
    "OBJECT_NAME": "ICEYE-X44",
    "OBJECT_ID": "2025-009DC",
    "EPOCH": "2026-07-15T18:40:03.648864",
    "MEAN_MOTION": 14.9617007,
    "ECCENTRICITY": 0.00024773,
    "INCLINATION": 97.7059,
    "RA_OF_ASC_NODE": 275.4528,
    "ARG_OF_PERICENTER": 71.3952,
    "MEAN_ANOMALY": 288.7538,
    "EPHEMERIS_TYPE": 0,
    "CLASSIFICATION_TYPE": "U",
    "NORAD_CAT_ID": 62707,
    "ELEMENT_SET_NO": 999,
    "REV_AT_EPOCH": 10421,
    "BSTAR": 0.00016627696,
    "MEAN_MOTION_DOT": 0.00001816,
    "MEAN_MOTION_DDOT": 0
   }
  },
  {
   "norad": 62705,
   "name": "ICEYE-X45",
   "intl": "2025-009DA",
   "group": "sar",
   "gcat": {
    "class": "B",
    "category": "IMG-R",
    "owner": "ICEUS",
    "state": "US"
   },
   "omm": {
    "OBJECT_NAME": "ICEYE-X45",
    "OBJECT_ID": "2025-009DA",
    "EPOCH": "2026-07-15T19:09:03.136608",
    "MEAN_MOTION": 15.00845134,
    "ECCENTRICITY": 0.00011419,
    "INCLINATION": 97.8415,
    "RA_OF_ASC_NODE": 283.7205,
    "ARG_OF_PERICENTER": 95.1486,
    "MEAN_ANOMALY": 264.9868,
    "EPHEMERIS_TYPE": 0,
    "CLASSIFICATION_TYPE": "U",
    "NORAD_CAT_ID": 62705,
    "ELEMENT_SET_NO": 999,
    "REV_AT_EPOCH": 8197,
    "BSTAR": 0.00039287915,
    "MEAN_MOTION_DOT": 0.00004934,
    "MEAN_MOTION_DDOT": 0
   }
  },
  {
   "norad": 63258,
   "name": "ICEYE-X46",
   "intl": "2025-052BA",
   "group": "sar",
   "gcat": {
    "class": "B",
    "category": "IMG-R",
    "owner": "ICEYE",
    "state": "FI"
   },
   "omm": {
    "OBJECT_NAME": "ICEYE-X46",
    "OBJECT_ID": "2025-052BA",
    "EPOCH": "2026-07-15T14:15:33.516288",
    "MEAN_MOTION": 14.95368332,
    "ECCENTRICITY": 0.0001714,
    "INCLINATION": 97.6859,
    "RA_OF_ASC_NODE": 87.9393,
    "ARG_OF_PERICENTER": 81.7007,
    "MEAN_ANOMALY": 278.4408,
    "EPHEMERIS_TYPE": 0,
    "CLASSIFICATION_TYPE": "U",
    "NORAD_CAT_ID": 63258,
    "ELEMENT_SET_NO": 999,
    "REV_AT_EPOCH": 7289,
    "BSTAR": 0.000097838,
    "MEAN_MOTION_DOT": 0.00001023,
    "MEAN_MOTION_DDOT": 0
   }
  },
  {
   "norad": 62389,
   "name": "ICEYE-X47",
   "intl": "2024-247N",
   "group": "sar",
   "gcat": {
    "class": "B",
    "category": "IMG-R",
    "owner": "ICEYE",
    "state": "FI"
   },
   "omm": {
    "OBJECT_NAME": "ICEYE-X47",
    "OBJECT_ID": "2024-247N",
    "EPOCH": "2026-07-15T11:05:51.547488",
    "MEAN_MOTION": 15.13485709,
    "ECCENTRICITY": 0.0001376,
    "INCLINATION": 44.9961,
    "RA_OF_ASC_NODE": 205.9543,
    "ARG_OF_PERICENTER": 350.9145,
    "MEAN_ANOMALY": 9.1707,
    "EPHEMERIS_TYPE": 0,
    "CLASSIFICATION_TYPE": "U",
    "NORAD_CAT_ID": 62389,
    "ELEMENT_SET_NO": 999,
    "REV_AT_EPOCH": 8646,
    "BSTAR": 0.000070923546,
    "MEAN_MOTION_DOT": 0.00001034,
    "MEAN_MOTION_DDOT": 0
   }
  },
  {
   "norad": 63253,
   "name": "ICEYE-X48",
   "intl": "2025-052AV",
   "group": "sar",
   "gcat": {
    "class": "B",
    "category": "IMG-R",
    "owner": "ICEUS",
    "state": "US"
   },
   "omm": {
    "OBJECT_NAME": "ICEYE-X48",
    "OBJECT_ID": "2025-052AV",
    "EPOCH": "2026-07-15T05:51:04.279392",
    "MEAN_MOTION": 14.98125864,
    "ECCENTRICITY": 0.00039847,
    "INCLINATION": 97.6838,
    "RA_OF_ASC_NODE": 88.0002,
    "ARG_OF_PERICENTER": 104.2469,
    "MEAN_ANOMALY": 255.9196,
    "EPHEMERIS_TYPE": 0,
    "CLASSIFICATION_TYPE": "U",
    "NORAD_CAT_ID": 63253,
    "ELEMENT_SET_NO": 999,
    "REV_AT_EPOCH": 7287,
    "BSTAR": 0.00015447143,
    "MEAN_MOTION_DOT": 0.00001772,
    "MEAN_MOTION_DDOT": 0
   }
  },
  {
   "norad": 62384,
   "name": "ICEYE-X49",
   "intl": "2024-247H",
   "group": "sar",
   "gcat": {
    "class": "B",
    "category": "IMG-R",
    "owner": "ICEYE",
    "state": "FI"
   },
   "omm": {
    "OBJECT_NAME": "ICEYE-X49",
    "OBJECT_ID": "2024-247H",
    "EPOCH": "2026-07-15T18:00:44.724960",
    "MEAN_MOTION": 15.13515356,
    "ECCENTRICITY": 0.00011765,
    "INCLINATION": 44.9961,
    "RA_OF_ASC_NODE": 204.8204,
    "ARG_OF_PERICENTER": 234.5476,
    "MEAN_ANOMALY": 125.5292,
    "EPHEMERIS_TYPE": 0,
    "CLASSIFICATION_TYPE": "U",
    "NORAD_CAT_ID": 62384,
    "ELEMENT_SET_NO": 999,
    "REV_AT_EPOCH": 8650,
    "BSTAR": 0.00011211654,
    "MEAN_MOTION_DOT": 0.00001785,
    "MEAN_MOTION_DDOT": 0
   }
  }
 ]
}
